{
  "type": "FeatureCollection",
  "features": [
    {
      "type": "Feature",
      "properties": {
        "norad_id": 39766,
        "name": "ALOS-2",
        "group": "resource",
        "lat": -53.65614418855311,
        "lon": 94.88915029487195,
        "alt_km": 638.8687230244859,
        "timestamp": "2025-12-15T04:01:20.099785+00:00",
        "meta_object_name": "ALOS-2",
        "meta_object_id": "2014-029A",
        "meta_epoch": "2025-12-14T08:47:22.493184",
        "meta_mean_motion": 14.79469978,
        "meta_eccentricity": 0.0001379,
        "meta_inclination": 97.9225,
        "meta_ra_of_asc_node": 83.1892,
        "meta_arg_of_pericenter": 102.2886,
        "meta_mean_anomaly": 257.848,
        "meta_ephemeris_type": 0,
        "meta_classification_type": "U",
        "meta_norad_cat_id": 39766,
        "meta_element_set_no": 999,
        "meta_rev_at_epoch": 62425,
        "meta_bstar": 0.00031508,
        "meta_mean_motion_dot": 2.302e-05,
        "meta_mean_motion_ddot": 0,
        "tle_line1": "1 39766U 14029A   25348.36623256  .00002302  00000+0  31508-3 0  9998",
        "tle_line2": "2 39766  97.9225  83.1892 0001379 102.2886 257.8480 14.79469978624252"
      },
      "geometry": {
        "type": "Point",
        "coordinates": [
          94.88915029487195,
          -53.65614418855311
        ]
      }
    },
    {
      "type": "Feature",
      "properties": {
        "norad_id": 40010,
        "name": "KAZEOSAT 2",
        "group": "resource",
        "lat": -81.26481606058262,
        "lon": -46.33003044793644,
        "alt_km": 618.2967874876085,
        "timestamp": "2025-12-15T04:01:20.099795+00:00",
        "meta_object_name": "KAZEOSAT 2",
        "meta_object_id": "2014-033A",
        "meta_epoch": "2025-12-14T07:25:35.024160",
        "meta_mean_motion": 14.85170103,
        "meta_eccentricity": 0.00077831,
        "meta_inclination": 97.5507,
        "meta_ra_of_asc_node": 192.5429,
        "meta_arg_of_pericenter": 201.2576,
        "meta_mean_anomaly": 158.8318,
        "meta_ephemeris_type": 0,
        "meta_classification_type": "U",
        "meta_norad_cat_id": 40010,
        "meta_element_set_no": 999,
        "meta_rev_at_epoch": 62151,
        "meta_bstar": 9.1598818e-05,
        "meta_mean_motion_dot": 7.35e-06,
        "meta_mean_motion_ddot": 0,
        "tle_line1": "1 40010U 14033A   25348.30943315  .00000735  00000+0  91599-4 0  9997",
        "tle_line2": "2 40010  97.5507 192.5429 0007783 201.2576 158.8318 14.85170103621519"
      },
      "geometry": {
        "type": "Point",
        "coordinates": [
          -46.33003044793644,
          -81.26481606058262
        ]
      }
    },
    {
      "type": "Feature",
      "properties": {
        "norad_id": 40011,
        "name": "HODOYOSHI-4",
        "group": "resource",
        "lat": 13.265468614206448,
        "lon": 176.14164410260523,
        "alt_km": 623.1772378677924,
        "timestamp": "2025-12-15T04:01:20.099806+00:00",
        "meta_object_name": "HODOYOSHI-4",
        "meta_object_id": "2014-033B",
        "meta_epoch": "2025-12-14T06:58:26.586336",
        "meta_mean_motion": 14.87490881,
        "meta_eccentricity": 0.0023276,
        "meta_inclination": 97.5419,
        "meta_ra_of_asc_node": 177.098,
        "meta_arg_of_pericenter": 195.0391,
        "meta_mean_anomaly": 165.0137,
        "meta_ephemeris_type": 0,
        "meta_classification_type": "U",
        "meta_norad_cat_id": 40011,
        "meta_element_set_no": 999,
        "meta_rev_at_epoch": 62131,
        "meta_bstar": 0.00030286855,
        "meta_mean_motion_dot": 2.706e-05,
        "meta_mean_motion_ddot": 0,
        "tle_line1": "1 40011U 14033B   25348.29058549  .00002706  00000+0  30287-3 0  9998",
        "tle_line2": "2 40011  97.5419 177.0980 0023276 195.0391 165.0137 14.87490881621319"
      },
      "geometry": {
        "type": "Point",
        "coordinates": [
          176.14164410260523,
          13.265468614206448
        ]
      }
    },
    {
      "type": "Feature",
      "properties": {
        "norad_id": 40013,
        "name": "DEIMOS-2",
        "group": "resource",
        "lat": -38.37322431647634,
        "lon": 38.813384575789215,
        "alt_km": 595.3624025034424,
        "timestamp": "2025-12-15T04:01:20.099816+00:00",
        "meta_object_name": "DEIMOS-2",
        "meta_object_id": "2014-033D",
        "meta_epoch": "2025-12-14T07:44:36.859776",
        "meta_mean_motion": 14.92979887,
        "meta_eccentricity": 8.84e-05,
        "meta_inclination": 97.6062,
        "meta_ra_of_asc_node": 224.0705,
        "meta_arg_of_pericenter": 107.9252,
        "meta_mean_anomaly": 252.2064,
        "meta_ephemeris_type": 0,
        "meta_classification_type": "U",
        "meta_norad_cat_id": 40013,
        "meta_element_set_no": 999,
        "meta_rev_at_epoch": 61013,
        "meta_bstar": 0.0002122053,
        "meta_mean_motion_dot": 2.15e-05,
        "meta_mean_motion_ddot": 0,
        "tle_line1": "1 40013U 14033D   25348.32264884  .00002150  00000+0  21221-3 0  9996",
        "tle_line2": "2 40013  97.6062 224.0705 0000884 107.9252 252.2064 14.92979887610132"
      },
      "geometry": {
        "type": "Point",
        "coordinates": [
          38.813384575789215,
          -38.37322431647634
        ]
      }
    },
    {
      "type": "Feature",
      "properties": {
        "norad_id": 40015,
        "name": "HODOYOSHI-3",
        "group": "resource",
        "lat": -80.45612191337266,
        "lon": -152.33242641385218,
        "alt_km": 603.423430363724,
        "timestamp": "2025-12-15T04:01:20.099827+00:00",
        "meta_object_name": "HODOYOSHI-3",
        "meta_object_id": "2014-033F",
        "meta_epoch": "2025-12-14T07:22:30.199872",
        "meta_mean_motion": 14.84814036,
        "meta_eccentricity": 0.00319463,
        "meta_inclination": 97.6197,
        "meta_ra_of_asc_node": 154.0741,
        "meta_arg_of_pericenter": 242.5815,
        "meta_mean_anomaly": 117.215,
        "meta_ephemeris_type": 0,
        "meta_classification_type": "U",
        "meta_norad_cat_id": 40015,
        "meta_element_set_no": 999,
        "meta_rev_at_epoch": 62018,
        "meta_bstar": 0.00023906893,
        "meta_mean_motion_dot": 1.995e-05,
        "meta_mean_motion_ddot": 0,
        "tle_line1": "1 40015U 14033F   25348.30729398  .00001995  00000+0  23907-3 0  9991",
        "tle_line2": "2 40015  97.6197 154.0741 0031946 242.5815 117.2150 14.84814036620186"
      },
      "geometry": {
        "type": "Point",
        "coordinates": [
          -152.33242641385218,
          -80.45612191337266
        ]
      }
    },
    {
      "type": "Feature",
      "properties": {
        "norad_id": 40053,
        "name": "SPOT 7",
        "group": "resource",
        "lat": 31.27490682057808,
        "lon": -123.85655171148451,
        "alt_km": 688.5608702385662,
        "timestamp": "2025-12-15T04:01:20.099837+00:00",
        "meta_object_name": "SPOT 7",
        "meta_object_id": "2014-034A",
        "meta_epoch": "2025-12-14T07:37:04.912608",
        "meta_mean_motion": 14.60738011,
        "meta_eccentricity": 0.00015558,
        "meta_inclination": 98.0905,
        "meta_ra_of_asc_node": 50.3563,
        "meta_arg_of_pericenter": 87.5539,
        "meta_mean_anomaly": 272.584,
        "meta_ephemeris_type": 0,
        "meta_classification_type": "U",
        "meta_norad_cat_id": 40053,
        "meta_element_set_no": 999,
        "meta_rev_at_epoch": 61014,
        "meta_bstar": 0.00022607841,
        "meta_mean_motion_dot": 1.057e-05,
        "meta_mean_motion_ddot": 0,
        "tle_line1": "1 40053U 14034A   25348.31741797  .00001057  00000+0  22608-3 0  9998",
        "tle_line2": "2 40053  98.0905  50.3563 0001555  87.5539 272.5840 14.60738011610141"
      },
      "geometry": {
        "type": "Point",
        "coordinates": [
          -123.85655171148451,
          31.27490682057808
        ]
      }
    },
    {
      "type": "Feature",
      "properties": {
        "norad_id": 40072,
        "name": "SKYSAT-B",
        "group": "resource",
        "lat": -44.03929977013494,
        "lon": -58.82210770074929,
        "alt_km": 617.2960867619295,
        "timestamp": "2025-12-15T04:01:20.099847+00:00",
        "meta_object_name": "SKYSAT-B",
        "meta_object_id": "2014-037D",
        "meta_epoch": "2025-12-14T05:37:06.276288",
        "meta_mean_motion": 14.87335119,
        "meta_eccentricity": 0.0006267,
        "meta_inclination": 98.3608,
        "meta_ra_of_asc_node": 292.0191,
        "meta_arg_of_pericenter": 145.6568,
        "meta_mean_anomaly": 214.5053,
        "meta_ephemeris_type": 0,
        "meta_classification_type": "U",
        "meta_norad_cat_id": 40072,
        "meta_element_set_no": 999,
        "meta_rev_at_epoch": 61846,
        "meta_bstar": 0.00023478177,
        "meta_mean_motion_dot": 2.06e-05,
        "meta_mean_motion_ddot": 0,
        "tle_line1": "1 40072U 14037D   25348.23410042  .00002060  00000+0  23478-3 0  9990",
        "tle_line2": "2 40072  98.3608 292.0191 0006267 145.6568 214.5053 14.87335119618466"
      },
      "geometry": {
        "type": "Point",
        "coordinates": [
          -58.82210770074929,
          -44.03929977013494
        ]
      }
    }
  ]
}